GLOBALSTAR M067         
1 32263U 07048A   24256.87742176 -.00000061  00000+0  27001-3 0  9996
2 32263  51.9719 127.3538 0001581  91.2066 353.2433 12.40654561775060
GLOBALSTAR M070         
1 32264U 07048B   24256.54531975 -.00000043  00000+0  34065-3 0  9992
2 32264  51.9732 254.3037 0000223 149.0023   0.6177 12.62300093779589
GLOBALSTAR M068         
1 32266U 07048D   24256.90106051 -.00000023  00000+0  44933-3 0  9990
2 32266  51.9886  67.5011 0000364 177.1089 296.0908 12.62800330782527
GLOBALSTAR M079         
1 37188U 10054A   24256.74048902 -.00000066  00000+0  20830-3 0  9998
2 37188  52.0023 264.3814 0000513  65.0313 106.2521 12.62264014641417
GLOBALSTAR M076         
1 37190U 10054C   24256.55199066 -.00000074  00000+0  16438-3 0  9996
2 37190  52.0015 264.4697 0000737  97.6397  54.6075 12.62256810642070
GLOBALSTAR M077         
1 37191U 10054D   24256.62186259 -.00000080  00000+0  13408-3 0  9996
2 37191  52.0052 221.0284 0000370  66.0707 105.4880 12.62263616642094
